{
  "type": "FeatureCollection",
  "features": [
    {
      "type": "Feature",
      "properties": {
        "norad_id": 66547,
        "name": "SHIJIAN-30C",
        "group": "last-30-days",
        "lat": -51.74556214576365,
        "lon": -84.94546473264724,
        "alt_km": 519.7238368009466,
        "timestamp": "2025-12-06T11:28:09.786581+00:00",
        "meta_object_name": "SHIJIAN-30C",
        "meta_object_id": "2025-266C",
        "meta_epoch": "2025-12-05T23:11:46.470912",
        "meta_mean_motion": 15.15539892,
        "meta_eccentricity": 0.00113906,
        "meta_inclination": 51.7992,
        "meta_ra_of_asc_node": 4.6079,
        "meta_arg_of_pericenter": 327.5781,
        "meta_mean_anomaly": 32.4495,
        "meta_ephemeris_type": 0,
        "meta_classification_type": "U",
        "meta_norad_cat_id": 66547,
        "meta_element_set_no": 999,
        "meta_rev_at_epoch": 255,
        "meta_bstar": 0.0008991428,
        "meta_mean_motion_dot": 0.00017018,
        "meta_mean_motion_ddot": 0,
        "tle_line1": "1 66547U 25266C   25339.96651008  .00017018  00000+0  89914-3 0  9996",
        "tle_line2": "2 66547  51.7992   4.6079 0011390 327.5781  32.4495 15.15539892  2553"
      },
      "geometry": {
        "type": "Point",
        "coordinates": [
          -84.94546473264724,
          -51.74556214576365
        ]
      }
    },
    {
      "type": "Feature",
      "properties": {
        "norad_id": 66548,
        "name": "CZ-2C R/B",
        "group": "last-30-days",
        "lat": 51.908089423433836,
        "lon": 85.6033215639499,
        "alt_km": 444.06293470673063,
        "timestamp": "2025-12-06T11:28:09.786591+00:00",
        "meta_object_name": "CZ-2C R/B",
        "meta_object_id": "2025-266D",
        "meta_epoch": "2025-12-05T22:32:58.308000",
        "meta_mean_motion": 15.29960004,
        "meta_eccentricity": 0.00844461,
        "meta_inclination": 52.0561,
        "meta_ra_of_asc_node": 3.6719,
        "meta_arg_of_pericenter": 149.9072,
        "meta_mean_anomaly": 210.6805,
        "meta_ephemeris_type": 0,
        "meta_classification_type": "U",
        "meta_norad_cat_id": 66548,
        "meta_element_set_no": 999,
        "meta_rev_at_epoch": 257,
        "meta_bstar": 0.00055384751,
        "meta_mean_motion_dot": 0.00017816,
        "meta_mean_motion_ddot": 0,
        "tle_line1": "1 66548U 25266D   25339.93956375  .00017816  00000+0  55385-3 0  9990",
        "tle_line2": "2 66548  52.0561   3.6719 0084446 149.9072 210.6805 15.29960004  2576"
      },
      "geometry": {
        "type": "Point",
        "coordinates": [
          85.6033215639499,
          51.908089423433836
        ]
      }
    },
    {
      "type": "Feature",
      "properties": {
        "norad_id": 66549,
        "name": "SHIJIAN-28",
        "group": "last-30-days",
        "lat": 2.1702682138020353,
        "lon": -78.45744081852699,
        "alt_km": 35400.790420209574,
        "timestamp": "2025-12-06T11:28:09.786603+00:00",
        "meta_object_name": "SHIJIAN-28",
        "meta_object_id": "2025-277A",
        "meta_epoch": "2025-11-30T18:06:43.124256",
        "meta_mean_motion": 2.28019775,
        "meta_eccentricity": 0.7300519,
        "meta_inclination": 14.4344,
        "meta_ra_of_asc_node": 275.4056,
        "meta_arg_of_pericenter": 179.5026,
        "meta_mean_anomaly": 182.358,
        "meta_ephemeris_type": 0,
        "meta_classification_type": "U",
        "meta_norad_cat_id": 66549,
        "meta_element_set_no": 999,
        "meta_rev_at_epoch": 4,
        "meta_bstar": 0.00062085,
        "meta_mean_motion_dot": 6.315e-05,
        "meta_mean_motion_ddot": 0,
        "tle_line1": "1 66549U 25277A   25334.75466579  .00006315  00000+0  62085-3 0  9997",
        "tle_line2": "2 66549  14.4344 275.4056 7300519 179.5026 182.3580  2.28019775    48"
      },
      "geometry": {
        "type": "Point",
        "coordinates": [
          -78.45744081852699,
          2.1702682138020353
        ]
      }
    },
    {
      "type": "Feature",
      "properties": {
        "norad_id": 66550,
        "name": "CZ-7A R/B",
        "group": "last-30-days",
        "lat": 0.01740467772701451,
        "lon": -86.95271722868732,
        "alt_km": 33030.45279109643,
        "timestamp": "2025-12-06T11:28:09.786621+00:00",
        "meta_object_name": "CZ-7A R/B",
        "meta_object_id": "2025-277B",
        "meta_epoch": "2025-12-05T16:08:57.677856",
        "meta_mean_motion": 2.46607958,
        "meta_eccentricity": 0.71883751,
        "meta_inclination": 14.4096,
        "meta_ra_of_asc_node": 273.3314,
        "meta_arg_of_pericenter": 182.4898,
        "meta_mean_anomaly": 169.6754,
        "meta_ephemeris_type": 0,
        "meta_classification_type": "U",
        "meta_norad_cat_id": 66550,
        "meta_element_set_no": 999,
        "meta_rev_at_epoch": 16,
        "meta_bstar": 0.0024987939,
        "meta_mean_motion_dot": 0.01162886,
        "meta_mean_motion_ddot": 1.281739e-06,
        "tle_line1": "1 66550U 25277B   25339.67288979  .01162886  12817-5  24988-2 0  9992",
        "tle_line2": "2 66550  14.4096 273.3314 7188375 182.4898 169.6754  2.46607958   162"
      },
      "geometry": {
        "type": "Point",
        "coordinates": [
          -86.95271722868732,
          0.01740467772701451
        ]
      }
    },
    {
      "type": "Feature",
      "properties": {
        "norad_id": 66551,
        "name": "UNKNOWN",
        "group": "last-30-days",
        "lat": 8.394408814654092,
        "lon": 31.358521924197316,
        "alt_km": 339.5398970932274,
        "timestamp": "2025-12-06T11:28:09.786642+00:00",
        "meta_object_name": "UNKNOWN",
        "meta_object_id": "2025-271AE",
        "meta_epoch": "2025-12-02T16:00:03.000096",
        "meta_mean_motion": 15.87051116,
        "meta_eccentricity": 7.17e-05,
        "meta_inclination": 53.1571,
        "meta_ra_of_asc_node": 236.7807,
        "meta_arg_of_pericenter": 110.7411,
        "meta_mean_anomaly": 313.9012,
        "meta_ephemeris_type": 0,
        "meta_classification_type": "U",
        "meta_norad_cat_id": 66551,
        "meta_element_set_no": 999,
        "meta_rev_at_epoch": 262,
        "meta_bstar": -0.0074303,
        "meta_mean_motion_dot": -0.01709685,
        "meta_mean_motion_ddot": 0,
        "tle_line1": "1 66551U 25271AE  25336.66670139 -.01709685  00000+0 -74303-2 0  9993",
        "tle_line2": "2 66551  53.1571 236.7807 0000717 110.7411 313.9012 15.87051116  2624"
      },
      "geometry": {
        "type": "Point",
        "coordinates": [
          31.358521924197316,
          8.394408814654092
        ]
      }
    },
    {
      "type": "Feature",
      "properties": {
        "norad_id": 66554,
        "name": "GLOBAL-33",
        "group": "last-30-days",
        "lat": 32.127168736966965,
        "lon": 137.35747849266284,
        "alt_km": 463.8565475517689,
        "timestamp": "2025-12-06T11:28:09.786670+00:00",
        "meta_object_name": "GLOBAL-33",
        "meta_object_id": "2025-267A",
        "meta_epoch": "2025-12-05T14:53:33.422208",
        "meta_mean_motion": 15.31384848,
        "meta_eccentricity": 0.00052034,
        "meta_inclination": 42.0195,
        "meta_ra_of_asc_node": 98.086,
        "meta_arg_of_pericenter": 1.4634,
        "meta_mean_anomaly": 358.6218,
        "meta_ephemeris_type": 0,
        "meta_classification_type": "U",
        "meta_norad_cat_id": 66554,
        "meta_element_set_no": 999,
        "meta_rev_at_epoch": 231,
        "meta_bstar": 0.0006698332,
        "meta_mean_motion_dot": 0.00020555,
        "meta_mean_motion_ddot": 0,
        "tle_line1": "1 66554U 25267A   25339.62052572  .00020555  00000+0  66983-3 0  9990",
        "tle_line2": "2 66554  42.0195  98.0860 0005203   1.4634 358.6218 15.31384848  2312"
      },
      "geometry": {
        "type": "Point",
        "coordinates": [
          137.35747849266284,
          32.127168736966965
        ]
      }
    },
    {
      "type": "Feature",
      "properties": {
        "norad_id": 66555,
        "name": "ELECTRON KICK STAGE R/B",
        "group": "last-30-days",
        "lat": 41.85002851307656,
        "lon": -171.13069404408995,
        "alt_km": 461.79686340505486,
        "timestamp": "2025-12-06T11:28:09.786689+00:00",
        "meta_object_name": "ELECTRON KICK STAGE R/B",
        "meta_object_id": "2025-267B",
        "meta_epoch": "2025-12-05T14:43:27.716736",
        "meta_mean_motion": 15.32305312,
        "meta_eccentricity": 0.00071457,
        "meta_inclination": 42.018,
        "meta_ra_of_asc_node": 98.033,
        "meta_arg_of_pericenter": 0.7116,
        "meta_mean_anomaly": 359.373,
        "meta_ephemeris_type": 0,
        "meta_classification_type": "U",
        "meta_norad_cat_id": 66555,
        "meta_element_set_no": 999,
        "meta_rev_at_epoch": 231,
        "meta_bstar": 0.0011829431,
        "meta_mean_motion_dot": 0.00037666,
        "meta_mean_motion_ddot": 0,
        "tle_line1": "1 66555U 25267B   25339.61351524  .00037666  00000+0  11829-2 0  9998",
        "tle_line2": "2 66555  42.0180  98.0330 0007145   0.7116 359.3730 15.32305312  2310"
      },
      "geometry": {
        "type": "Point",
        "coordinates": [
          -171.13069404408995,
          41.85002851307656
        ]
      }
    }
  ]
}